NORAD_CAT_ID,OBJECT_NAME,OBJECT_TYPE,EPOCH,MEAN_MOTION,ECCENTRICITY,INCLINATION,RA_OF_ASC_NODE,ARG_OF_PERICENTER,MEAN_ANOMALY,BSTAR,MEAN_MOTION_DOT,MEAN_MOTION_DDOT,TLE_LINE0,TLE_LINE1,TLE_LINE2,SEMIMAJOR_AXIS,PERIOD,APOGEE,PERIGEE,DECAYED
53787.0,STARLINK-4743,PAYLOAD,2022-12-09 07:09:40,15.08846139,0.0001603,53.2176,199.8689,49.1592,310.9539,0.0001688,2.4e-05,0.0,0 STARLINK-4743,1 53787U 22111Q   22343.29838641  .00002400  00000-0  16880-3 0  9994,2 53787  53.2176 199.8689 0001603  49.1592 310.9539 15.08846139 13780,6917.861999999999,95.437,540.836,538.618,0.0
53787.0,STARLINK-4743,PAYLOAD,2022-12-09 19:52:48,15.08791626,0.0001169,53.2171,197.4878,31.3422,328.7639,0.00041015,6.237e-05,0.0,0 STARLINK-4743,1 53787U 22111Q   22343.82833891  .00006237  00000-0  41015-3 0  9995,2 53787  53.2171 197.4878 0001169  31.3422 328.7639 15.08791626 13868,6918.028,95.441,540.702,539.085,0.0
53787.0,STARLINK-4743,PAYLOAD,2022-12-10 00:38:57,15.08821743,0.0001812,53.2171,196.5963,43.6874,316.4262,-9.9953e-06,-4.47e-06,0.0,0 STARLINK-4743,1 53787U 22111Q   22344.02705193 -.00000447  00000-0 -99953-5 0  9996,2 53787  53.2171 196.5963 0001812  43.6874 316.4262 15.08821743 13898,6917.936,95.439,541.055,538.548,0.0
53787.0,STARLINK-4743,PAYLOAD,2022-12-10 13:22:02,15.08821788,0.0001882,53.2174,194.2167,43.51,316.6041,5.255e-05,5.48e-06,0.0,0 STARLINK-4743,1 53787U 22111Q   22344.55697535  .00000548  00000-0  52550-4 0  9995,2 53787  53.2174 194.2167 0001882  43.5100 316.6041 15.08821788 14785,6917.936,95.439,541.1030000000002,538.499,0.0
53787.0,STARLINK-4743,PAYLOAD,2022-12-10 19:43:35,15.08826741,0.0001846,53.217,193.0289,44.2375,315.8765,8.434e-05,1.054e-05,0.0,0 STARLINK-4743,1 53787U 22111Q   22344.82193416  .00001054  00000-0  84340-4 0  9999,2 53787  53.2170 193.0289 0001846  44.2375 315.8765 15.08826741 14019,6917.920999999999,95.438,541.063,538.509,0.0
53787.0,STARLINK-4743,PAYLOAD,2022-12-11 00:29:44,15.08828766,0.0001854,53.217,192.1367,44.602,315.5121,9.8246e-05,1.275e-05,0.0,0 STARLINK-4743,1 53787U 22111Q   22345.02065439  .00001275  00000-0  98246-4 0  9990,2 53787  53.2170 192.1367 0001854  44.6020 315.5121 15.08828766 14850,6917.915,95.438,541.062,538.497,0.0
53787.0,STARLINK-4743,PAYLOAD,2022-12-11 21:09:45,15.08833653,0.0001867,53.2168,188.2711,44.3029,315.8112,0.0001995,2.888e-05,0.0,0 STARLINK-4743,1 53787U 22111Q   22345.88177626  .00002888  00000-0  19950-3 0  9991,2 53787  53.2168 188.2711 0001867  44.3029 315.8112 15.08833653 14984,6917.9,95.438,541.056,538.4730000000002,0.0
53787.0,STARLINK-4743,PAYLOAD,2022-12-12 00:20:31,15.08836867,0.0001878,53.2167,187.6761,44.2751,315.8391,0.00022483,3.292e-05,0.0,0 STARLINK-4743,1 53787U 22111Q   22346.01425491  .00003292  00000-0  22483-3 0  9998,2 53787  53.2167 187.6761 0001878  44.2751 315.8391 15.08836867 14196,6917.89,95.438,541.054,538.456,0.0
53787.0,STARLINK-4743,PAYLOAD,2022-12-12 22:35:54,15.0885182,0.0001928,53.2155,183.5127,44.5672,315.5475,0.00021725,3.172e-05,0.0,0 STARLINK-4743,1 53787U 22111Q   22346.94160655  .00003172  00000-0  21725-3 0  9993,2 53787  53.2155 183.5127 0001928  44.5672 315.5475 15.08851820 14337,6917.844,95.437,541.043,538.375,0.0
53787.0,STARLINK-4743,PAYLOAD,2022-12-13 06:32:50,15.08847508,0.0002045,53.2159,182.0263,44.8947,315.221,0.00012458,1.695e-05,0.0,0 STARLINK-4743,1 53787U 22111Q   22347.27280786  .00001695  00000-0  12458-3 0  9999,2 53787  53.2159 182.0263 0002045  44.8947 315.2210 15.08847508 14382,6917.857,95.437,541.137,538.308,0.0
53787.0,STARLINK-4743,PAYLOAD,2022-12-13 12:54:23,15.08845482,0.0002107,53.2154,180.8376,45.0347,315.0816,6.0498e-05,6.75e-06,0.0,0 STARLINK-4743,1 53787U 22111Q   22347.53776768  .00000675  00000-0  60498-4 0  9993,2 53787  53.2154 180.8376 0002107  45.0347 315.0816 15.08845482 15238,6917.864000000001,95.437,541.186,538.271,0.0
53787.0,STARLINK-4743,PAYLOAD,2022-12-13 19:15:55,15.08842434,0.0002108,53.2153,179.648,45.6276,314.4889,6.9913e-05,8.25e-06,0.0,0 STARLINK-4743,1 53787U 22111Q   22347.80272842  .00000825  00000-0  69913-4 0  9995,2 53787  53.2153 179.6480 0002108  45.6276 314.4889 15.08842434 15278,6917.873000000001,95.437,541.196,538.28,0.0
53787.0,STARLINK-4743,PAYLOAD,2022-12-13 22:26:42,15.08845274,0.0001997,53.2165,179.0528,46.8258,313.2901,3.7456e-05,3.08e-06,0.0,0 STARLINK-4743,1 53787U 22111Q   22347.93520863  .00000308  00000-0  37456-4 0  9991,2 53787  53.2165 179.0528 0001997  46.8258 313.2901 15.08845274 14485,6917.864000000001,95.437,541.111,538.3480000000002,0.0
53787.0,STARLINK-4743,PAYLOAD,2022-12-14 12:45:09,15.08851797,0.0002013,53.2165,176.3766,47.3306,312.7856,3.3838000000000004e-05,2.51e-06,0.0,0 STARLINK-4743,1 53787U 22111Q   22348.53136097  .00000251  00000-0  33838-4 0  9997,2 53787  53.2165 176.3766 0002013  47.3306 312.7856 15.08851797 15389,6917.844,95.437,541.102,538.317,0.0
53787.0,STARLINK-4743,PAYLOAD,2022-12-14 19:06:41,15.08849085,0.0001989,53.2162,175.1867,48.3598,311.7564,9.2568e-05,1.186e-05,0.0,0 STARLINK-4743,1 53787U 22111Q   22348.79631882  .00001186  00000-0  92568-4 0  9990,2 53787  53.2162 175.1867 0001989  48.3598 311.7564 15.08849085 15427,6917.853,95.437,541.094,538.342,0.0
53787.0,STARLINK-4743,PAYLOAD,2022-12-15 07:49:47,15.08837109,0.0001837,53.2165,172.8081,46.7352,313.3794,-1.4694e-05,-5.22e-06,0.0,0 STARLINK-4743,1 53787U 22111Q   22349.32624839 -.00000522  00000-0 -14694-4 0  9993,2 53787  53.2165 172.8081 0001837  46.7352 313.3794 15.08837109 14699,6917.889,95.438,541.025,538.4830000000002,0.0
53787.0,STARLINK-4743,PAYLOAD,2022-12-15 12:35:57,15.08836844,0.000196,53.2162,171.9159,47.5477,312.5681,3.6064e-05,2.86e-06,0.0,0 STARLINK-4743,1 53787U 22111Q   22349.52496793  .00000286  00000-0  36064-4 0  9991,2 53787  53.2162 171.9159 0001960  47.5477 312.5681 15.08836844 15531,6917.89,95.438,541.111,538.399,0.0
53787.0,STARLINK-4743,PAYLOAD,2022-12-15 18:57:29,15.08839301,0.0001968,53.2164,170.7267,46.0619,314.0535,4.8656e-05,4.86e-06,0.0,0 STARLINK-4743,1 53787U 22111Q   22349.78992690  .00000486  00000-0  48656-4 0  9998,2 53787  53.2164 170.7267 0001968  46.0619 314.0535 15.08839301 15570,6917.8830000000025,95.438,541.109,538.386,0.0
53787.0,STARLINK-4743,PAYLOAD,2022-12-16 12:26:43,15.08844685,0.0001972,53.2164,167.4555,45.1949,314.9204,5.3199e-05,5.59e-06,0.0,0 STARLINK-4743,1 53787U 22111Q   22350.51856336  .00000559  00000-0  53199-4 0  9996,2 53787  53.2164 167.4555 0001972  45.1949 314.9204 15.08844685 14879,6917.866,95.437,541.095,538.367,0.0
53787.0,STARLINK-4743,PAYLOAD,2022-12-16 20:23:39,15.08847385,0.0002057,53.2158,165.9684,46.6924,313.4239,0.00011358,1.52e-05,0.0,0 STARLINK-4743,1 53787U 22111Q   22350.84976084  .00001520  00000-0  11358-3 0  9994,2 53787  53.2158 165.9684 0002057  46.6924 313.4239 15.08847385 15730,6917.858,95.437,541.146,538.3,0.0
53787.0,STARLINK-4743,PAYLOAD,2022-12-17 04:20:35,15.08830036,0.0002339,53.2161,164.4809,52.339,307.7814,-0.0001095,-2.03e-05,0.0,0 STARLINK-4743,1 53787U 22111Q   22351.18097182 -.00002030  00000-0 -10950-3 0  9991,2 53787  53.2161 164.4809 0002339  52.3390 307.7814 15.08830036 14976,6917.911,95.438,541.394,538.158,0.0
53787.0,STARLINK-4743,PAYLOAD,2022-12-17 12:17:31,15.08829214,0.0001894,53.2157,162.994,46.292,313.8228,-1.5202e-05,-5.3e-06,0.0,0 STARLINK-4743,1 53787U 22111Q   22351.51217315 -.00000530  00000-0 -15202-4 0  9999,2 53787  53.2157 162.9940 0001894  46.2920 313.8228 15.08829214 15835,6917.913000000001,95.438,541.089,538.4680000000002,0.0
53787.0,STARLINK-4743,PAYLOAD,2022-12-17 18:39:04,15.08831668,0.0001927,53.2156,161.8049,45.0895,315.0254,1.5422999999999998e-05,-4.3e-07,0.0,0 STARLINK-4743,1 53787U 22111Q   22351.77713343 -.00000043  00000-0  15423-4 0  9992,2 53787  53.2156 161.8049 0001927  45.0895 315.0254 15.08831668 15870,6917.906,95.438,541.104,538.438,0.0
53787.0,STARLINK-4743,PAYLOAD,2022-12-18 12:08:18,15.08835852,0.0001994,53.216,158.5341,43.9049,316.2101,5.0758e-05,5.2e-06,0.0,0 STARLINK-4743,1 53787U 22111Q   22352.50577495  .00000520  00000-0  50758-4 0  9999,2 53787  53.2160 158.5341 0001994  43.9049 316.2101 15.08835852 15171,6917.893,95.438,541.137,538.379,0.0
53787.0,STARLINK-4743,PAYLOAD,2022-12-18 20:05:14,15.08840355,0.0002014,53.2159,157.0472,44.7113,315.4041,0.00013058,1.791e-05,0.0,0 STARLINK-4743,1 53787U 22111Q   22352.83697423  .00001791  00000-0  13058-3 0  9991,2 53787  53.2159 157.0472 0002014  44.7113 315.4041 15.08840355 16037,6917.879,95.438,541.138,538.351,0.0
53787.0,STARLINK-4743,PAYLOAD,2022-12-18 23:16:00,15.08839731,0.0002018,53.2157,156.4526,44.8896,315.2259,0.00018664,2.683e-05,0.0,0 STARLINK-4743,1 53787U 22111Q   22352.96945523  .00002683  00000-0  18664-3 0  9991,2 53787  53.2157 156.4526 0002018  44.8896 315.2259 15.08839731 16058,6917.880999999999,95.438,541.1419999999998,538.35,0.0
53787.0,STARLINK-4743,PAYLOAD,2022-12-19 19:56:01,15.08856435,0.0002051,53.2154,152.5869,46.2399,313.8763,0.00047932,7.352e-05,0.0,0 STARLINK-4743,1 53787U 22111Q   22353.83056969  .00007352  00000-0  47932-3 0  9993,2 53787  53.2154 152.5869 0002051  46.2399 313.8763 15.08856435 16181,6917.83,95.437,541.114,538.276,0.0
53787.0,STARLINK-4743,PAYLOAD,2022-12-19 23:06:47,15.08859941,0.0002062,53.2151,151.9922,46.2566,313.8596,0.00054242,8.36e-05,0.0,0 STARLINK-4743,1 53787U 22111Q   22353.96304791  .00008360  00000-0  54242-3 0  9998,2 53787  53.2151 151.9922 0002062  46.2566 313.8596 15.08859941 15390,6917.819,95.436,541.111,538.258,0.0
53787.0,STARLINK-4743,PAYLOAD,2022-12-20 03:52:56,15.08864024,0.0002059,53.2151,151.1001,46.8008,313.3155,0.00056706,8.754e-05,0.0,0 STARLINK-4743,1 53787U 22111Q   22354.16176470  .00008754  00000-0  56706-3 0  9996,2 53787  53.2151 151.1001 0002059  46.8008 313.3155 15.08864024 16231,6917.807,95.436,541.096,538.248,0.0
